#cP2009 11 22  0  0  0.00000000      96 ORBIT IGS05 HLM  IGS
## 1559      0.00000000   900.00000000 55157 0.0000000000000
+   32   G01G02G03G04G05G06G07G08G09G10G11G12G13G14G15G16G17
+        G18G19G20G21G22G23G24G25G26G27G28G29G30G31G32  0  0
+          0  0  0  0  0  0  0  0  0  0  0  0  0  0  0  0  0
+          0  0  0  0  0  0  0  0  0  0  0  0  0  0  0  0  0
+          0  0  0  0  0  0  0  0  0  0  0  0  0  0  0  0  0
++         4  2  2  2  2  2  2  3  3  2  2  2  2  2  2  3  2
++         2  2  2  2  2  2  4  2  2  2  2  2  2  2  2  0  0
++         0  0  0  0  0  0  0  0  0  0  0  0  0  0  0  0  0
++         0  0  0  0  0  0  0  0  0  0  0  0  0  0  0  0  0
++         0  0  0  0  0  0  0  0  0  0  0  0  0  0  0  0  0
%c G  cc GPS ccc cccc cccc cccc cccc ccccc ccccc ccccc ccccc
%c cc cc ccc ccc cccc cccc cccc cccc ccccc ccccc ccccc ccccc
%f  1.2500000  1.025000000  0.00000000000  0.000000000000000
%f  0.0000000  0.000000000  0.00000000000  0.000000000000000
%i    0    0    0    0      0      0      0      0         0
%i    0    0    0    0      0      0      0      0         0
/* FINAL ORBIT COMBINATION FROM WEIGHTED AVERAGE OF:        
/* cod emr esa gfz grg jpl mit ngs sio                      
/* REFERENCED TO IGS TIME (IGST) AND TO WEIGHTED MEAN POLE: 
/* PCV:IGS05_1552 OL/AL:FES2004  NONE     Y  ORB:CMB CLK:CMB
*  2009 11 22 15 45  0.00000000
PG01 -16706.013117  17218.708178 -11384.383435 999999.999999
PG02 -13601.971015 -12197.961097 -19484.749069    194.679173  6  6  6 113       
PG03  24660.630083   9599.855133   3542.678681    477.995496  5  7  6  87       
PG04  -7829.881779 -21826.338694 -12767.265578   -371.546878  5  2  3 131       
PG05 -22214.680619   -363.007248 -14624.644676    -40.156140  3  7  5 136       
PG06  23351.550630  12695.948471   1548.934710    262.233916  6  6  6 111       
PG07   7435.724145 -23969.681881  -8460.190517      7.251124  6  9  4  97       
PG08    662.633328 -25924.345856   4192.276962      0.004910  7  5  6 162       
PG09 -13811.327358   9266.219059  20037.854692     89.908563  6  5  9  98       
PG10 -20116.700538  -4053.889474 -17208.233853    -28.920417  7  7  5 113       
PG11  13394.828744 -12697.057912  18749.295890    -30.542794  5  3  3 103       
PG12 -24237.749075  10594.403989   1486.864887   -186.541471  7  8  6  66       
PG13   5215.474005 -14067.446265 -22038.895189    306.333920  6  9  5 117       
PG14  11029.100065  19710.481393  14216.295164    -21.249669  4  8  6 128       
PG15 -23180.269010  -4707.494521  12199.785082   -319.746589  6  6  6  95       
PG16  17271.622627   6466.587378 -19158.873035    -11.338672  6  5  7  99       
PG17 -11840.907850 -19769.332126  13460.083686    104.792538  6  8  7 152       
PG18 -11107.065379  18028.288740  16054.967522     29.440254  7  9  6 103       
PG19  22210.650380   4901.731298  13980.539143     -0.068044  3  5  5  98       
PG20  22129.786274 -14313.260810  -3181.749450     67.037026  6  9    124       
PG21  -4651.824849  25532.461288  -3453.946412    -22.985892  5  6  8 124       
PG22   1668.827911  16247.551934  21099.493218    185.686277  6  6  3 127       
PG23  16706.649178  -5313.416286 -20070.286902    385.623113  7 10  6 110       
PG24 -13137.039782  17202.299609 -15447.381641 999999.999999
PG25   9024.087561 -20544.226041 -14011.054892     28.527572  6  6  6 146       
PG26   2616.903496  17602.816921  19007.588193      2.155748  4  7  6 149       
PG27 -14966.929703   4890.730567  22076.542385    102.032575  5  6  9 152       
PG28   1151.919815 -16499.151334  21163.515314    -25.258240  5  7  3 105       
PG29  -8620.246240  12514.453113 -21692.747350     76.274154  4  5  5 141       
PG30 -17636.355626  17499.851516  -9691.683680    195.370022  3  6  5 103       
PG31   8433.507977  20425.048554 -14410.373065    -60.521785  3  5  6 107       
PG32  25252.520911  -6370.812062   4669.842072    152.783923  6  5  9 113       
*  2009 11 22 16  0  0.00000000
PG01 -17822.232595  17566.569650  -8846.740591 999999.999999
PG02 -13433.524625 -14328.300008 -18137.557537    194.682984  6  7  7 107       
PG03  24778.821438  10015.448939    791.623068    477.999527  4  7  6  82       
PG04  -7495.558748 -23134.292631 -10383.130312   -371.563475  5  3  4 127       
PG05 -20727.608425  -1360.371524 -16608.741734    -40.150192  3  7  5 130       
PG06  23192.337477  12978.644180  -1245.970297    262.235186  5  6  6 103       
PG07   7613.123179 -22845.065849 -11039.647780      7.250166  6  9  4  96       
PG08    900.261864 -26221.654533   1267.891619      0.005220  7  5  6 165       
PG09 -13882.568394   6787.478951  20936.889219     89.910537  5  6  9 108       
PG10 -18371.548692  -5080.244156 -18797.700227    -28.920203  6  8  5 120       
PG11  13998.045860 -10488.444601  19673.985431    -30.544540  6  3  2 105       
PG12 -24058.506391  10229.473596   4340.630046   -186.536509  7  9  6  69       
PG13   7262.434516 -12626.188290 -22333.292145    306.333786  6  9  5 108       
PG14   9545.245900  18841.274256  16321.486661    -21.245391  4  8  6 135       
PG15 -24134.584959  -5546.694643   9752.110024   -319.745721  6  7  6  96       
PG16  15290.498012   7561.466186 -20377.318903    -11.341906  6  5  7  99       
PG17 -10366.145262 -19023.686386  15576.843287    104.795802  6  8  7 157       
PG18 -12734.627157  18576.074635  14031.786533     29.442731  7  9  6  85       
PG19  23268.702844   5919.205837  11695.645497     -0.069645  4  5  6  87       
PG20  22452.996084 -14132.183306   -374.884837     67.036217  5  8    127       
PG21  -4998.440509  24916.751625  -6215.267958    -22.988253  5  5  8 123       
PG22   -473.146966  17213.423374  20369.289548    185.685332  7  6  3 122       
PG23  18521.099086  -4057.522429 -18751.787027    385.622694  6  9  6 112       
PG24 -13153.667909  15309.159012 -17279.797115 999999.999999
PG25   9289.227721 -18788.284553 -16080.787270     28.540765  6  6  6 148       
PG26    629.134754  16321.139455  20285.872918      2.153890  4  7  6 147       
PG27 -15044.334758   2497.461005  22437.820778    102.036651  5  6 10 148       
PG28   3234.054336 -17427.200767  20130.053743    -25.257982  5  6  3 118       
PG29 -10689.483022  11124.294767 -21525.648689     76.276982  4  5  5 139       
PG30 -18550.593240  17749.436412  -7066.214691    195.373953  3  6  5  98       
PG31   8196.302479  21970.466030 -12112.966725    -60.520858  2  6  5  83       
PG32  24753.352475  -5873.249881   7432.302677    152.777018  7  5  9 112       
*  2009 11 22 16 15  0.00000000
PG01 -18668.142836  17815.638622  -6156.534420 999999.999999
PG02 -13365.092181 -16293.789327 -16484.286601    194.687079  5  7  6 123       
PG03  24631.513782  10306.885564  -1972.822582    478.004495  4  7  6  96       
PG04  -7217.165156 -24178.032959  -7817.920402   -371.579891  5  3  4 122       
PG05 -19117.336409  -2543.808724 -18308.161595    -40.144454  3  7  5 132       
PG06  22764.038646  13133.269000  -4019.524376    262.236427  6  6  6  95       
PG07   7856.681139 -21449.616939 -13427.608254      7.249771  5  9  3  76       
PG08   1108.008354 -26193.938541  -1679.053048      0.004557  8  5  7 165       
PG09 -14090.128618   4231.961057  21452.922971     89.912820  5  6  9 104       
PG10 -16542.482817  -6277.873580 -20071.243996    -28.921196  5  8  5 134       
PG11  14707.704123  -8225.650166  20251.020755    -30.546161  6  2  2  97       
PG12 -23624.777933   9690.794443   7119.192929   -186.532024  7  9  6  44       
PG13   9398.914218 -11299.195368 -22247.851956    306.334254  5  9  5 123       
PG14   7824.314623  17943.917610  18149.954840    -21.241024  4  9  6 133       
PG15 -24877.702015  -6203.201234   7137.623186   -319.745391  6  8  6  99       
PG16  13266.977773   8822.000981 -21245.691607    -11.345708  6  6  7 122       
PG17  -8659.689204 -18245.684932  17429.217270    104.799298  6  8  8 157       
PG18 -14127.694921  19081.334580  11766.477867     29.445243  7  9  7 105       
PG19  24152.900871   6734.170775   9212.748044     -0.071506  3  5  6 105       
PG20  22518.856837 -13793.192949   2438.437749     67.035613  4  8    126       
PG21  -5376.713646  24006.653509  -8864.656909    -22.990508  5  5  7 116       
PG22  -2478.602180  18233.100936  19292.995933    185.684711  6  7  4 123       
PG23  20253.108428  -2983.084632 -17114.448775    385.622052  5  9  5 112       
PG24 -13261.798815  13226.628886 -18815.177789 999999.999999
PG25   9675.963966 -16827.058186 -17869.267395     28.553923  6  6  7 147       
PG26  -1532.965663  15084.225835  21194.000834      2.151541  4  6  6 149       
PG27 -15258.517539     93.715252  22436.772552    102.039430  4  6 10 149       
PG28   5150.924994 -18401.465206  18760.213288    -25.257829  4  6  3 114       
PG29 -12793.213517   9862.942583 -20984.941990     76.279672  4  5  5 136       
PG30 -19202.759529  17874.834972  -4320.095973    195.376149  3  6  6  82       
PG31   8036.143422  23250.736002  -9603.114235    -60.520076  1  6  5  86       
PG32  24007.220403  -5217.222739  10066.068827    152.770039  7  4  9 102       
EOF
